NORAD_CAT_ID,OBJECT_NAME,OBJECT_TYPE,EPOCH,MEAN_MOTION,ECCENTRICITY,INCLINATION,RA_OF_ASC_NODE,ARG_OF_PERICENTER,MEAN_ANOMALY,BSTAR,MEAN_MOTION_DOT,MEAN_MOTION_DDOT,TLE_LINE0,TLE_LINE1,TLE_LINE2,SEMIMAJOR_AXIS,PERIOD,APOGEE,PERIGEE,DECAYED
52484.0,STARLINK-3887,PAYLOAD,2023-02-17 05:08:40,15.08818922,0.0001028,53.2163,31.1784,94.3314,265.7795,-0.00044751,-7.399e-05,0.0,0 STARLINK-3887,1 52484U 22049AK  23048.21436165 -.00007399  00000-0 -44751-3 0  9999,2 52484  53.2163  31.1784 0001028  94.3314 265.7795 15.08818922 43860,6917.945,95.439,540.521,539.099,0.0
52484.0,STARLINK-3887,PAYLOAD,2023-02-17 09:54:50,15.0883019,0.0001336,53.2162,30.2849,87.5166,272.5979,0.00061774,9.554e-05,0.0,0 STARLINK-3887,1 52484U 22049AK  23048.41308401  .00009554  00000-0  61774-3 0  9999,2 52484  53.2162  30.2849 0001336  87.5166 272.5979 15.08830190 43896,6917.91,95.438,540.7,538.851,0.0
52484.0,STARLINK-3887,PAYLOAD,2023-02-17 16:16:23,15.08814154,0.0001059,53.2161,29.098,89.6734,270.4379,0.00028504,4.248e-05,0.0,0 STARLINK-3887,1 52484U 22049AK  23048.67804831  .00004248  00000-0  28504-3 0  9994,2 52484  53.2161  29.0980 0001059  89.6734 270.4379 15.08814154 43931,6917.959,95.439,540.557,539.092,0.0
52484.0,STARLINK-3887,PAYLOAD,2023-02-18 09:45:38,15.08832121,0.0001612,53.2162,25.8247,92.1643,267.9534,0.0016191,0.00025568,0.0,0 STARLINK-3887,1 52484U 22049AK  23049.40669732  .00025568  00000-0  16191-2 0  9991,2 52484  53.2162  25.8247 0001612  92.1643 267.9534 15.08832121 44046,6917.904,95.438,540.885,538.654,0.0
52484.0,STARLINK-3887,PAYLOAD,2023-02-19 09:36:24,15.08879376,0.0001582,53.2154,21.3662,90.693,269.4243,0.0013224,0.00020843,0.0,0 STARLINK-3887,1 52484U 22049AK  23050.40028295  .00020843  00000-0  13224-2 0  9991,2 52484  53.2154  21.3662 0001582  90.6930 269.4243 15.08879376 44033,6917.76,95.435,540.719,538.531,0.0
52484.0,STARLINK-3887,PAYLOAD,2023-02-20 07:51:48,15.08865726,0.0001034,53.2171,17.2041,101.8414,258.2694,0.0018212,0.00028836,0.0,0 STARLINK-3887,1 52484U 22049AK  23051.32764020  .00028836  00000-0  18212-2 0  9998,2 52484  53.2171  17.2041 0001034 101.8414 258.2694 15.08865726 44334,6917.802,95.436,540.382,538.951,0.0
52484.0,STARLINK-3887,PAYLOAD,2023-02-20 14:13:20,15.08837483,0.0001286,53.2163,16.0118,105.2354,254.878,0.00087042,0.00013591,0.0,0 STARLINK-3887,1 52484U 22049AK  23051.59260324  .00013591  00000-0  87042-3 0  9995,2 52484  53.2163  16.0118 0001286 105.2354 254.8780 15.08837483 44378,6917.888,95.438,540.643,538.863,0.0
52484.0,STARLINK-3887,PAYLOAD,2023-02-21 14:04:07,15.08848189,7.07e-05,53.2171,11.5536,136.0472,224.0577,0.00084994,0.00013268,0.0,0 STARLINK-3887,1 52484U 22049AK  23052.58620162  .00013268  00000-0  84994-3 0  9999,2 52484  53.2171  11.5536 0000707 136.0472 224.0577 15.08848189 44526,6917.855,95.437,540.209,539.231,0.0
52484.0,STARLINK-3887,PAYLOAD,2023-02-22 02:47:13,15.08847461,0.0001145,53.2169,9.1756,107.4687,252.643,0.0013172,0.00020742,0.0,0 STARLINK-3887,1 52484U 22049AK  23053.11612519  .00020742  00000-0  13172-2 0  9990,2 52484  53.2169   9.1756 0001145 107.4687 252.6430 15.08847461 44603,6917.858,95.437,540.515,538.93,0.0
52484.0,STARLINK-3887,PAYLOAD,2023-02-22 05:57:59,15.08847922,0.0001416,53.2178,8.5811,105.3583,254.7566,0.00050329,7.733e-05,0.0,0 STARLINK-3887,1 52484U 22049AK  23053.24860430  .00007733  00000-0  50329-3 0  9992,2 52484  53.2178   8.5811 0001416 105.3583 254.7566 15.08847922 44460,6917.856,95.437,540.701,538.742,0.0
52484.0,STARLINK-3887,PAYLOAD,2023-02-23 05:48:47,15.08843607,0.0001021,53.2156,4.1198,95.9835,264.1273,0.00093727,0.00014662,0.0,0 STARLINK-3887,1 52484U 22049AK  23054.24221497  .00014662  00000-0  93727-3 0  9995,2 52484  53.2156   4.1198 0001021  95.9835 264.1273 15.08843607 44772,6917.869,95.437,540.441,539.028,0.0
52484.0,STARLINK-3887,PAYLOAD,2023-02-23 23:18:01,15.08854891,0.0001196,53.2154,0.8475,95.1407,264.9722,0.00096226,0.00015066,0.0,0 STARLINK-3887,1 52484U 22049AK  23054.97085430  .00015066  00000-0  96226-3 0  9996,2 52484  53.2154   0.8475 0001196  95.1407 264.9722 15.08854891 44887,6917.835,95.437,540.527,538.873,0.0
52484.0,STARLINK-3887,PAYLOAD,2023-02-24 05:39:33,15.08875995,0.0001262,53.2155,359.6579,91.9812,268.1324,0.0014249,0.00022484,0.0,0 STARLINK-3887,1 52484U 22049AK  23055.23580786  .00022484  00000-0  14249-2 0  9996,2 52484  53.2155 359.6579 0001262  91.9812 268.1324 15.08875995 44765,6917.77,95.435,540.508,538.762,0.0
52484.0,STARLINK-3887,PAYLOAD,2023-02-24 19:58:02,15.08849508,0.0001164,53.2155,356.9827,87.3343,272.7783,0.00025046,3.701e-05,0.0,0 STARLINK-3887,1 52484U 22049AK  23055.83197028  .00003701  00000-0  25046-3 0  9994,2 52484  53.2155 356.9827 0001164  87.3343 272.7783 15.08849508 44851,6917.851,95.437,540.522,538.911,0.0
52484.0,STARLINK-3887,PAYLOAD,2023-02-24 23:08:48,15.08846871,6.46e-05,53.2156,356.3877,73.8171,286.2892,0.00024465,3.609e-05,0.0,0 STARLINK-3887,1 52484U 22049AK  23055.96444993  .00003609  00000-0  24465-3 0  9995,2 52484  53.2156 356.3877 0000646  73.8171 286.2892 15.08846871 45036,6917.859,95.437,540.171,539.277,0.0
52484.0,STARLINK-3887,PAYLOAD,2023-02-25 05:30:20,15.08852756,0.0001002,53.2155,355.198,96.6073,263.5034,0.00058252,8.998e-05,0.0,0 STARLINK-3887,1 52484U 22049AK  23056.22940862  .00008998  00000-0  58252-3 0  9998,2 52484  53.2155 355.1980 0001002  96.6073 263.5034 15.08852756 44919,6917.841,95.437,540.4,539.013,0.0
52484.0,STARLINK-3887,PAYLOAD,2023-02-26 05:21:08,15.08853105,0.0001426,53.2156,350.7359,100.5409,259.5744,0.00093096,0.00014565,0.0,0 STARLINK-3887,1 52484U 22049AK  23057.22301253  .00014565  00000-0  93096-3 0  9996,2 52484  53.2156 350.7359 0001426 100.5409 259.5744 15.08853105 45226,6917.84,95.437,540.692,538.719,0.0
52484.0,STARLINK-3887,PAYLOAD,2023-02-27 00:25:45,15.08864205,0.0001357,53.2149,347.1671,97.174,262.9406,0.00076584,0.00011929,0.0,0 STARLINK-3887,1 52484U 22049AK  23058.01788546  .00011929  00000-0  76584-3 0  9992,2 52484  53.2149 347.1671 0001357  97.1740 262.9406 15.08864205 45346,6917.806,95.436,540.61,538.733,0.0
52484.0,STARLINK-3887,PAYLOAD,2023-02-27 02:01:08,15.08869212,0.0001349,53.2154,346.8689,99.2543,260.8602,0.00082793,0.00012924,0.0,0 STARLINK-3887,1 52484U 22049AK  23058.08412342  .00012924  00000-0  82793-3 0  9992,2 52484  53.2154 346.8689 0001349  99.2543 260.8602 15.08869212 45193,6917.791,95.436,540.589,538.723,0.0
52484.0,STARLINK-3887,PAYLOAD,2023-02-27 19:30:21,15.08874309,0.0001721,53.2176,343.6011,87.4291,272.6898,0.0007193,0.00011189,0.0,0 STARLINK-3887,1 52484U 22049AK  23058.81275168  .00011189  00000-0  71930-3 0  9999,2 52484  53.2176 343.6011 0001721  87.4291 272.6898 15.08874309 45308,6917.776,95.435,540.831,538.45,0.0
52484.0,STARLINK-3887,PAYLOAD,2023-02-28 05:02:39,15.0891606,0.0001164,53.2159,341.8168,90.9782,269.1344,0.0022298,0.00035452,0.0,0 STARLINK-3887,1 52484U 22049AK  23059.21017772  .00035452  00000-0  22298-2 0  9990,2 52484  53.2159 341.8168 0001164  90.9782 269.1344 15.08916060 45529,6917.648,95.433,540.318,538.708,0.0
52484.0,STARLINK-3887,PAYLOAD,2023-02-28 22:31:56,15.08795203,6.08e-05,53.2162,338.5465,74.0342,286.0717,0.00012042,1.627e-05,0.0,0 STARLINK-3887,1 52484U 22049AK  23059.93884442  .00001627  00000-0  12042-3 0  9999,2 52484  53.2162 338.5465 0000608  74.0342 286.0717 15.08795203 45473,6918.017,95.44,540.303,539.462,0.0
52484.0,STARLINK-3887,PAYLOAD,2023-03-01 04:53:29,15.08808658,0.0001247,53.2161,337.3555,125.2124,234.8985,0.00014363,1.997e-05,0.0,0 STARLINK-3887,1 52484U 22049AK  23060.20380936  .00001997  00000-0  14363-3 0  9998,2 52484  53.2161 337.3555 0001247 125.2124 234.8985 15.08808658 45675,6917.976,95.44,540.704,538.979,0.0
52484.0,STARLINK-3887,PAYLOAD,2023-03-01 06:28:52,15.08802782,0.0001385,53.2164,337.0591,131.362,228.7491,0.00082856,0.0001291,0.0,0 STARLINK-3887,1 52484U 22049AK  23060.27005317  .00012910  00000-0  82856-3 0  9991,2 52484  53.2164 337.0591 0001385 131.3620 228.7491 15.08802782 45527,6917.994,95.44,540.817,538.901,0.0
52484.0,STARLINK-3887,PAYLOAD,2023-03-02 03:08:53,15.08867028,0.0001421,53.2152,333.1934,137.4622,222.6481,0.001837,0.00029091,0.0,0 STARLINK-3887,1 52484U 22049AK  23061.13117137  .00029091  00000-0  18370-2 0  9998,2 52484  53.2152 333.1934 0001421 137.4622 222.6481 15.08867028 45810,6917.798,95.436,540.646,538.68,0.0
52484.0,STARLINK-3887,PAYLOAD,2023-03-02 04:44:16,15.08875162,0.0001453,53.2156,332.896,138.0745,222.0359,0.0020006,0.00031726,0.0,0 STARLINK-3887,1 52484U 22049AK  23061.19740927  .00031726  00000-0  20006-2 0  9990,2 52484  53.2156 332.8960 0001453 138.0745 222.0359 15.08875162 45666,6917.773,95.435,540.643,538.633,0.0
52484.0,STARLINK-3887,PAYLOAD,2023-03-03 01:24:17,15.08859096,0.0001595,53.2154,329.0302,153.7704,206.3369,0.001627,0.00025714,0.0,0 STARLINK-3887,1 52484U 22049AK  23062.05853059  .00025714  00000-0  16270-2 0  9995,2 52484  53.2154 329.0302 0001595 153.7704 206.3369 15.08859096 45954,6917.822,95.436,540.79,538.584,0.0
52484.0,STARLINK-3887,PAYLOAD,2023-03-03 20:28:54,15.08852802,0.0001312,53.2158,325.462,118.045,242.0675,0.0014584,0.00023007,0.0,0 STARLINK-3887,1 52484U 22049AK  23062.85341273  .00023007  00000-0  14584-2 0  9992,2 52484  53.2158 325.4620 0001312 118.0450 242.0675 15.08852802 45911,6917.841,95.437,540.614,538.799,0.0
52484.0,STARLINK-3887,PAYLOAD,2023-03-03 23:39:40,15.08860487,0.0001168,53.2155,324.8671,113.4725,246.639,0.0017253,0.00027292,0.0,0 STARLINK-3887,1 52484U 22049AK  23062.98589114  .00027292  00000-0  17253-2 0  9990,2 52484  53.2155 324.8671 0001168 113.4725 246.6390 15.08860487 46092,6917.818,95.436,540.491,538.875,0.0
52484.0,STARLINK-3887,PAYLOAD,2023-03-04 02:50:26,15.08876392,0.0001169,53.2154,324.2715,108.3242,251.7877,0.0021921,0.00034807,0.0,0 STARLINK-3887,1 52484U 22049AK  23063.11836787  .00034807  00000-0  21921-2 0  9994,2 52484  53.2154 324.2715 0001169 108.3242 251.7877 15.08876392 46114,6917.769,95.435,540.443,538.825,0.0
